{"type": "FeatureCollection", "features": [ {"type": "Feature", "properties": {"norad_id": 32106, "name": "FENGYUN 1C DEB", "group": "fengyun-1c-debris", "lat": -68.874121425735, "lon": 121.38151158310119, "alt_km": 847.6334540879761, "timestamp": "2025-12-24T03:53:29.932611+00:00", "meta": {"OBJECT_NAME": "FENGYUN 1C DEB", "OBJECT_ID": "1999-025CQY", "EPOCH": "2025-12-23T16:36:55.661760", "MEAN_MOTION": 14.27206286, "ECCENTRICITY": 0.0110476, "INCLINATION": 101.4632, "RA_OF_ASC_NODE": 332.4461, "ARG_OF_PERICENTER": 13.7084, "MEAN_ANOMALY": 346.7045, "EPHEMERIS_TYPE": 0, "CLASSIFICATION_TYPE": "U", "NORAD_CAT_ID": 32106, "ELEMENT_SET_NO": 999, "REV_AT_EPOCH": 69548, "BSTAR": 0.0041517, "MEAN_MOTION_DOT": 0.00010773, "MEAN_MOTION_DDOT": 0}, "tle": {"line1": "1 32106U 99025CQY 25357.69231090  .00010773  00000+0  41517-2 0  9996", "line2": "2 32106 101.4632 332.4461 0110476  13.7084 346.7045 14.27206286695485"}}, "geometry": {"type": "Point", "coordinates": [121.38151158310119, -68.874121425735]}}, {"type": "Feature", "properties": {"norad_id": 32109, "name": "FENGYUN 1C DEB", "group": "fengyun-1c-debris", "lat": -35.44153217332745, "lon": -116.63378185047316, "alt_km": 681.16386042053, "timestamp": "2025-12-24T03:53:29.932621+00:00", "meta": {"OBJECT_NAME": "FENGYUN 1C DEB", "OBJECT_ID": "1999-025CRB", "EPOCH": "2025-12-22T21:54:44.575488", "MEAN_MOTION": 14.33976388, "ECCENTRICITY": 0.0205156, "INCLINATION": 98.359, "RA_OF_ASC_NODE": 236.1509, "ARG_OF_PERICENTER": 281.9409, "MEAN_ANOMALY": 75.8843, "EPHEMERIS_TYPE": 0, "CLASSIFICATION_TYPE": "U", "NORAD_CAT_ID": 32109, "ELEMENT_SET_NO": 999, "REV_AT_EPOCH": 65034, "BSTAR": 0.00054652989, "MEAN_MOTION_DOT": 1.881e-05, "MEAN_MOTION_DDOT": 0}, "tle": {"line1": "1 32109U 99025CRB 25356.91301592  .00001881  00000+0  54653-3 0  9994", "line2": "2 32109  98.3590 236.1509 0205156 281.9409  75.8843 14.33976388650344"}}, "geometry": {"type": "Point", "coordinates": [-116.63378185047316, -35.44153217332745]}}, {"type": "Feature", "properties": {"norad_id": 32110, "name": "FENGYUN 1C DEB", "group": "fengyun-1c-debris", "lat": 39.0749036083896, "lon": -3.719862973383609, "alt_km": 815.5096164801953, "timestamp": "2025-12-24T03:53:29.932632+00:00", "meta": {"OBJECT_NAME": "FENGYUN 1C DEB", "OBJECT_ID": "1999-025CRC", "EPOCH": "2025-12-22T23:22:37.139808", "MEAN_MOTION": 14.28961563, "ECCENTRICITY": 0.00335496, "INCLINATION": 99.5437, "RA_OF_ASC_NODE": 167.13, "ARG_OF_PERICENTER": 337.3668, "MEAN_ANOMALY": 174.1359, "EPHEMERIS_TYPE": 0, "CLASSIFICATION_TYPE": "U", "NORAD_CAT_ID": 32110, "ELEMENT_SET_NO": 999, "REV_AT_EPOCH": 64534, "BSTAR": 0.0014667226, "MEAN_MOTION_DOT": 3.68e-05, "MEAN_MOTION_DDOT": 0}, "tle": {"line1": "1 32110U 99025CRC 25356.97404097  .00003680  00000+0  14667-2 0  9995", "line2": "2 32110  99.5437 167.1300 0033549 337.3668 174.1359 14.28961563645341"}}, "geometry": {"type": "Point", "coordinates": [-3.719862973383609, 39.0749036083896]}}, {"type": "Feature", "properties": {"norad_id": 32111, "name": "FENGYUN 1C DEB", "group": "fengyun-1c-debris", "lat": -66.73452749214084, "lon": 157.37014804604922, "alt_km": 773.6782407985011, "timestamp": "2025-12-24T03:53:29.932642+00:00", "meta": {"OBJECT_NAME": "FENGYUN 1C DEB", "OBJECT_ID": "1999-025CRD", "EPOCH": "2025-12-22T05:44:25.154592", "MEAN_MOTION": 14.31556202, "ECCENTRICITY": 0.01201962, "INCLINATION": 98.4435, "RA_OF_ASC_NODE": 355.7106, "ARG_OF_PERICENTER": 176.6881, "MEAN_ANOMALY": 245.6167, "EPHEMERIS_TYPE": 0, "CLASSIFICATION_TYPE": "U", "NORAD_CAT_ID": 32111, "ELEMENT_SET_NO": 999, "REV_AT_EPOCH": 96167, "BSTAR": 0.00017504889, "MEAN_MOTION_DOT": 4.6e-06, "MEAN_MOTION_DDOT": 0}, "tle": {"line1": "1 32111U 99025CRD 25356.23918003  .00000460  00000+0  17505-3 0  9990", "line2": "2 32111  98.4435 355.7106 0120196 176.6881 245.6167 14.31556202961675"}}, "geometry": {"type": "Point", "coordinates": [157.37014804604922, -66.73452749214084]}}, {"type": "Feature", "properties": {"norad_id": 32113, "name": "FENGYUN 1C DEB", "group": "fengyun-1c-debris", "lat": 48.10250508728771, "lon": 22.491273415621066, "alt_km": 1051.7789295704333, "timestamp": "2025-12-24T03:53:29.932654+00:00", "meta": {"OBJECT_NAME": "FENGYUN 1C DEB", "OBJECT_ID": "1999-025CRF", "EPOCH": "2025-12-22T20:39:08.544384", "MEAN_MOTION": 13.9458115, "ECCENTRICITY": 0.0238461, "INCLINATION": 99.0255, "RA_OF_ASC_NODE": 31.4218, "ARG_OF_PERICENTER": 198.943, "MEAN_ANOMALY": 160.2746, "EPHEMERIS_TYPE": 0, "CLASSIFICATION_TYPE": "U", "NORAD_CAT_ID": 32113, "ELEMENT_SET_NO": 999, "REV_AT_EPOCH": 63027, "BSTAR": 0.0006327, "MEAN_MOTION_DOT": 1.027e-05, "MEAN_MOTION_DDOT": 0}, "tle": {"line1": "1 32113U 99025CRF 25356.86051556  .00001027  00000+0  63270-3 0  9992", "line2": "2 32113  99.0255  31.4218 0238461 198.9430 160.2746 13.94581150630270"}}, "geometry": {"type": "Point", "coordinates": [22.491273415621066, 48.10250508728771]}}, {"type": "Feature", "properties": {"norad_id": 32114, "name": "FENGYUN 1C DEB", "group": "fengyun-1c-debris", "lat": -32.574338682178535, "lon": 124.24251425601078, "alt_km": 613.4585357399119, "timestamp": "2025-12-24T03:53:29.932665+00:00", "meta": {"OBJECT_NAME": "FENGYUN 1C DEB", "OBJECT_ID": "1999-025CRG", "EPOCH": "2025-12-06T13:19:21.641376", "MEAN_MOTION": 14.76489439, "ECCENTRICITY": 0.00447682, "INCLINATION": 99.9287, "RA_OF_ASC_NODE": 96.1919, "ARG_OF_PERICENTER": 3.5911, "MEAN_ANOMALY": 356.5605, "EPHEMERIS_TYPE": 0, "CLASSIFICATION_TYPE": "U", "NORAD_CAT_ID": 32114, "ELEMENT_SET_NO": 999, "REV_AT_EPOCH": 65638, "BSTAR": 0.0040574802, "MEAN_MOTION_DOT": 0.0002877, "MEAN_MOTION_DDOT": 0}, "tle": {"line1": "1 32114U 99025CRG 25340.55511159  .00028770  00000+0  40575-2 0  9998", "line2": "2 32114  99.9287  96.1919 0044768   3.5911 356.5605 14.76489439656383"}}, "geometry": {"type": "Point", "coordinates": [124.24251425601078, -32.574338682178535]}}, {"type": "Feature", "properties": {"norad_id": 32117, "name": "FENGYUN 1C DEB", "group": "fengyun-1c-debris", "lat": 57.95185259742323, "lon": -122.71650027874928, "alt_km": 796.4929786483499, "timestamp": "2025-12-24T03:53:29.932677+00:00", "meta": {"OBJECT_NAME": "FENGYUN 1C DEB", "OBJECT_ID": "1999-025CRK", "EPOCH": "2025-12-22T09:10:09.164064", "MEAN_MOTION": 14.23981803, "ECCENTRICITY": 0.00278217, "INCLINATION": 98.6161, "RA_OF_ASC_NODE": 41.5233, "ARG_OF_PERICENTER": 65.2411, "MEAN_ANOMALY": 295.1659, "EPHEMERIS_TYPE": 0, "CLASSIFICATION_TYPE": "U", "NORAD_CAT_ID": 32117, "ELEMENT_SET_NO": 999, "REV_AT_EPOCH": 94934, "BSTAR": 0.00096836354, "MEAN_MOTION_DOT": 2.189e-05, "MEAN_MOTION_DDOT": 0}, "tle": {"line1": "1 32117U 99025CRK 25356.38205051  .00002189  00000+0  96836-3 0  9998", "line2": "2 32117  98.6161  41.5233 0027821  65.2411 295.1659 14.23981803949349"}}, "geometry": {"type": "Point", "coordinates": [-122.71650027874928, 57.95185259742323]}}, {"type": "Feature", "properties": {"norad_id": 32119, "name": "FENGYUN 1C DEB", "group": "fengyun-1c-debris", "lat": -2.631983575067331, "lon": -137.89509347797528, "alt_km": 830.0759944858028, "timestamp": "2025-12-24T03:53:29.932688+00:00", "meta": {"OBJECT_NAME": "FENGYUN 1C DEB", "OBJECT_ID": "1999-025CRM", "EPOCH": "2025-12-21T09:08:50.463168", "MEAN_MOTION": 14.02839478, "ECCENTRICITY": 0.00860891, "INCLINATION": 99.8866, "RA_OF_ASC_NODE": 218.6288, "ARG_OF_PERICENTER": 29.2524, "MEAN_ANOMALY": 331.342, "EPHEMERIS_TYPE": 0, "CLASSIFICATION_TYPE": "U", "NORAD_CAT_ID": 32119, "ELEMENT_SET_NO": 999, "REV_AT_EPOCH": 93849, "BSTAR": 0.00056371909, "MEAN_MOTION_DOT": 8.5e-06, "MEAN_MOTION_DDOT": 0}, "tle": {"line1": "1 32119U 99025CRM 25355.38113962  .00000850  00000+0  56372-3 0  9992", "line2": "2 32119  99.8866 218.6288 0086089  29.2524 331.3420 14.02839478938499"}}, "geometry": {"type": "Point", "coordinates": [-137.89509347797528, -2.631983575067331]}}, {"type": "Feature", "properties": {"norad_id": 32123, "name": "FENGYUN 1C DEB", "group": "fengyun-1c-debris", "lat": 23.64323366908383, "lon": -9.148340589020776, "alt_km": 709.7148571846637, "timestamp": "2025-12-24T03:53:29.932700+00:00", "meta": {"OBJECT_NAME": "FENGYUN 1C DEB", "OBJECT_ID": "1999-025CRR", "EPOCH": "2025-12-23T17:23:40.064064", "MEAN_MOTION": 14.61498032, "ECCENTRICITY": 0.0159488, "INCLINATION": 98.9414, "RA_OF_ASC_NODE": 166.4267, "ARG_OF_PERICENTER": 259.3865, "MEAN_ANOMALY": 118.4426, "EPHEMERIS_TYPE": 0, "CLASSIFICATION_TYPE": "U", "NORAD_CAT_ID": 32123, "ELEMENT_SET_NO": 999, "REV_AT_EPOCH": 71535, "BSTAR": 0.00029792, "MEAN_MOTION_DOT": 1.703e-05, "MEAN_MOTION_DDOT": 0}, "tle": {"line1": "1 32123U 99025CRR 25357.72476926  .00001703  00000+0  29792-3 0  9993", "line2": "2 32123  98.9414 166.4267 0159488 259.3865 118.4426 14.61498032715358"}}, "geometry": {"type": "Point", "coordinates": [-9.148340589020776, 23.64323366908383]}}, {"type": "Feature", "properties": {"norad_id": 32125, "name": "FENGYUN 1C DEB", "group": "fengyun-1c-debris", "lat": -63.839978589057175, "lon": -1.266726439534775, "alt_km": 546.7560601274063, "timestamp": "2025-12-24T03:53:29.932710+00:00", "meta": {"OBJECT_NAME": "FENGYUN 1C DEB", "OBJECT_ID": "1999-025CRT", "EPOCH": "2025-12-23T16:44:51.529632", "MEAN_MOTION": 14.70223503, "ECCENTRICITY": 0.0172723, "INCLINATION": 99.0646, "RA_OF_ASC_NODE": 339.2508, "ARG_OF_PERICENTER": 289.2148, "MEAN_ANOMALY": 69.0435, "EPHEMERIS_TYPE": 0, "CLASSIFICATION_TYPE": "U", "NORAD_CAT_ID": 32125, "ELEMENT_SET_NO": 999, "REV_AT_EPOCH": 70684, "BSTAR": 0.0023172, "MEAN_MOTION_DOT": 0.00017568, "MEAN_MOTION_DDOT": 0}, "tle": {"line1": "1 32125U 99025CRT 25357.69781863  .00017568  00000+0  23172-2 0  9991", "line2": "2 32125  99.0646 339.2508 0172723 289.2148  69.0435 14.70223503706844"}}, "geometry": {"type": "Point", "coordinates": [-1.266726439534775, -63.839978589057175]}}]}